QIANFAN-17              
1 60395U 24140S   26196.88740195  .00000098  00000+0  13336-3 0  9995
2 60395  88.9745 277.1350 0012827 308.7413  51.2591 13.51016329 97186
QIANFAN-18              
1 60396U 24140T   26196.86680436  .00000098  00000+0  13266-3 0  9997
2 60396  88.9738 276.6565 0011924 288.4538  71.5317 13.51015786 96579
QIANFAN-19              
1 61552U 24185A   26196.86412492  .00000222  00000+0  10855-3 0  9996
2 61552  88.9813  53.2921 0006344 353.8969   6.2139 14.14494331100073
QIANFAN-20              
1 61553U 24185B   26196.87650415  .00000230  00000+0  12487-3 0  9999
2 61553  88.9809  53.8279 0006804  36.4763 323.6883 14.09036174 99786
QIANFAN-21              
1 61554U 24185C   26196.96303746  .00000299  00000+0  12678-3 0  9999
2 61554  88.9729  51.7738 0011844  32.9033 327.2894 14.22881685100578
QIANFAN-22              
1 61555U 24185D   26196.87442959  .00000156  00000+0  12304-3 0  9998
2 61555  88.9794  55.6779 0008463  64.5812 295.6234 13.86407690 98748
QIANFAN-23              
1 61556U 24185E   26196.88753236  .00000222  00000+0  10440-3 0  9996
2 61556  88.9806  52.9980 0007307   1.5071 358.6138 14.16518585100209
QIANFAN-24              
1 61557U 24185F   26196.92381884  .00000314  00000+0  13024-3 0  9991
2 61557  88.9787  52.0491 0008098 329.5362  30.5359 14.24098691100649
QIANFAN-25              
1 61558U 24185G   26196.86314027  .00000198  00000+0  11198-3 0  9990
2 61558  88.9802  53.8459 0012698  31.8483 328.3464 14.06095595 99731
QIANFAN-26              
1 61559U 24185H   26196.92144586  .00000152  00000+0  13859-3 0  9995
2 61559  88.9801  56.5267 0007900  81.9202 278.2861 13.77923935 98304
QIANFAN-27              
1 61560U 24185J   26196.88319718  .00000261  00000+0  10024-3 0  9995
2 61560  88.9799  51.7254 0005576 318.7062  41.3710 14.27557053100853
QIANFAN-28              
1 61561U 24185K   26196.88675294  .00000333  00000+0  12758-3 0  9996
2 61561  88.9817  51.7384 0005382 316.5785  43.4985 14.28419160100889
QIANFAN-29              
1 61562U 24185L   26196.88479766  .00000101  00000+0  13756-3 0  9995
2 61562  88.9774  59.0744 0010928 139.3672 220.8297 13.51078794 96847
QIANFAN-30              
1 61563U 24185M   26196.87446617  .00000008  00000+0 -64897-5 0  9995
2 61563  88.9794  58.6830 0008912 125.2103 234.9884 13.50061408 97093
QIANFAN-31              
1 61564U 24185N   26196.90528429  .00000121  00000+0  15041-3 0  9992
2 61564  88.9778  58.1404 0008751 113.1369 247.0709 13.58046958 97361
QIANFAN-32              
1 61565U 24185P   26196.87299580  .00000120  00000+0  16795-3 0  9998
2 61565  88.9834  58.8816 0010156 153.7439 206.4229 13.50792508 97085
