{"fetched_at":"2026-07-16T06:42:36.857Z","source":"https://celestrak.org/NORAD/elements/gp.php?GROUP=qianfan&FORMAT=JSON","constellation":"qianfan","records":[{"OBJECT_NAME":"QIANFAN-17","OBJECT_ID":"2024-140S","EPOCH":"2026-07-15T21:17:51.528480","CLASSIFICATION_TYPE":"U","MEAN_MOTION":13.51016329,"ECCENTRICITY":0.00128277,"INCLINATION":88.9745,"RA_OF_ASC_NODE":277.135,"ARG_OF_PERICENTER":308.7413,"MEAN_ANOMALY":51.2591,"EPHEMERIS_TYPE":0,"NORAD_CAT_ID":60395,"ELEMENT_SET_NO":999,"REV_AT_EPOCH":9718,"BSTAR":0.00013336081,"MEAN_MOTION_DOT":9.8e-7,"MEAN_MOTION_DDOT":0},{"OBJECT_NAME":"QIANFAN-18","OBJECT_ID":"2024-140T","EPOCH":"2026-07-15T20:48:11.896704","CLASSIFICATION_TYPE":"U","MEAN_MOTION":13.51015786,"ECCENTRICITY":0.00119248,"INCLINATION":88.9738,"RA_OF_ASC_NODE":276.6565,"ARG_OF_PERICENTER":288.4538,"MEAN_ANOMALY":71.5317,"EPHEMERIS_TYPE":0,"NORAD_CAT_ID":60396,"ELEMENT_SET_NO":999,"REV_AT_EPOCH":9657,"BSTAR":0.00013266057,"MEAN_MOTION_DOT":9.8e-7,"MEAN_MOTION_DDOT":0},{"OBJECT_NAME":"QIANFAN-19","OBJECT_ID":"2024-185A","EPOCH":"2026-07-15T20:44:20.393088","CLASSIFICATION_TYPE":"U","MEAN_MOTION":14.14494331,"ECCENTRICITY":0.00063443,"INCLINATION":88.9813,"RA_OF_ASC_NODE":53.2921,"ARG_OF_PERICENTER":353.8969,"MEAN_ANOMALY":6.2139,"EPHEMERIS_TYPE":0,"NORAD_CAT_ID":61552,"ELEMENT_SET_NO":999,"REV_AT_EPOCH":10007,"BSTAR":0.00010854717,"MEAN_MOTION_DOT":0.00000222,"MEAN_MOTION_DDOT":0},{"OBJECT_NAME":"QIANFAN-20","OBJECT_ID":"2024-185B","EPOCH":"2026-07-15T21:02:09.958560","CLASSIFICATION_TYPE":"U","MEAN_MOTION":14.09036174,"ECCENTRICITY":0.00068045,"INCLINATION":88.9809,"RA_OF_ASC_NODE":53.8279,"ARG_OF_PERICENTER":36.4763,"MEAN_ANOMALY":323.6883,"EPHEMERIS_TYPE":0,"NORAD_CAT_ID":61553,"ELEMENT_SET_NO":999,"REV_AT_EPOCH":9978,"BSTAR":0.00012487229,"MEAN_MOTION_DOT":0.0000023,"MEAN_MOTION_DDOT":0},{"OBJECT_NAME":"QIANFAN-21","OBJECT_ID":"2024-185C","EPOCH":"2026-07-15T23:06:46.436544","CLASSIFICATION_TYPE":"U","MEAN_MOTION":14.22881685,"ECCENTRICITY":0.00118443,"INCLINATION":88.9729,"RA_OF_ASC_NODE":51.7738,"ARG_OF_PERICENTER":32.9033,"MEAN_ANOMALY":327.2894,"EPHEMERIS_TYPE":0,"NORAD_CAT_ID":61554,"ELEMENT_SET_NO":999,"REV_AT_EPOCH":10057,"BSTAR":0.00012677536,"MEAN_MOTION_DOT":0.00000299,"MEAN_MOTION_DDOT":0},{"OBJECT_NAME":"QIANFAN-22","OBJECT_ID":"2024-185D","EPOCH":"2026-07-15T20:59:10.716576","CLASSIFICATION_TYPE":"U","MEAN_MOTION":13.8640769,"ECCENTRICITY":0.0008463,"INCLINATION":88.9794,"RA_OF_ASC_NODE":55.6779,"ARG_OF_PERICENTER":64.5812,"MEAN_ANOMALY":295.6234,"EPHEMERIS_TYPE":0,"NORAD_CAT_ID":61555,"ELEMENT_SET_NO":999,"REV_AT_EPOCH":9874,"BSTAR":0.00012304363,"MEAN_MOTION_DOT":0.00000156,"MEAN_MOTION_DDOT":0},{"OBJECT_NAME":"QIANFAN-23","OBJECT_ID":"2024-185E","EPOCH":"2026-07-15T21:18:02.795904","CLASSIFICATION_TYPE":"U","MEAN_MOTION":14.16518585,"ECCENTRICITY":0.00073079,"INCLINATION":88.9806,"RA_OF_ASC_NODE":52.998,"ARG_OF_PERICENTER":1.5071,"MEAN_ANOMALY":358.6138,"EPHEMERIS_TYPE":0,"NORAD_CAT_ID":61556,"ELEMENT_SET_NO":999,"REV_AT_EPOCH":10020,"BSTAR":0.00010439547,"MEAN_MOTION_DOT":0.00000222,"MEAN_MOTION_DDOT":0},{"OBJECT_NAME":"QIANFAN-24","OBJECT_ID":"2024-185F","EPOCH":"2026-07-15T22:10:17.947776","CLASSIFICATION_TYPE":"U","MEAN_MOTION":14.24098691,"ECCENTRICITY":0.00080981,"INCLINATION":88.9787,"RA_OF_ASC_NODE":52.0491,"ARG_OF_PERICENTER":329.5362,"MEAN_ANOMALY":30.5359,"EPHEMERIS_TYPE":0,"NORAD_CAT_ID":61557,"ELEMENT_SET_NO":999,"REV_AT_EPOCH":10064,"BSTAR":0.00013023748,"MEAN_MOTION_DOT":0.00000314,"MEAN_MOTION_DDOT":0},{"OBJECT_NAME":"QIANFAN-25","OBJECT_ID":"2024-185G","EPOCH":"2026-07-15T20:42:55.319328","CLASSIFICATION_TYPE":"U","MEAN_MOTION":14.06095595,"ECCENTRICITY":0.00126981,"INCLINATION":88.9802,"RA_OF_ASC_NODE":53.8459,"ARG_OF_PERICENTER":31.8483,"MEAN_ANOMALY":328.3464,"EPHEMERIS_TYPE":0,"NORAD_CAT_ID":61558,"ELEMENT_SET_NO":999,"REV_AT_EPOCH":9973,"BSTAR":0.00011198023,"MEAN_MOTION_DOT":0.00000198,"MEAN_MOTION_DDOT":0},{"OBJECT_NAME":"QIANFAN-26","OBJECT_ID":"2024-185H","EPOCH":"2026-07-15T22:06:52.922304","CLASSIFICATION_TYPE":"U","MEAN_MOTION":13.77923935,"ECCENTRICITY":0.00079008,"INCLINATION":88.9801,"RA_OF_ASC_NODE":56.5267,"ARG_OF_PERICENTER":81.9202,"MEAN_ANOMALY":278.2861,"EPHEMERIS_TYPE":0,"NORAD_CAT_ID":61559,"ELEMENT_SET_NO":999,"REV_AT_EPOCH":9830,"BSTAR":0.0001385862,"MEAN_MOTION_DOT":0.00000152,"MEAN_MOTION_DDOT":0},{"OBJECT_NAME":"QIANFAN-27","OBJECT_ID":"2024-185J","EPOCH":"2026-07-15T21:11:48.236352","CLASSIFICATION_TYPE":"U","MEAN_MOTION":14.27557053,"ECCENTRICITY":0.00055765,"INCLINATION":88.9799,"RA_OF_ASC_NODE":51.7254,"ARG_OF_PERICENTER":318.7062,"MEAN_ANOMALY":41.371,"EPHEMERIS_TYPE":0,"NORAD_CAT_ID":61560,"ELEMENT_SET_NO":999,"REV_AT_EPOCH":10085,"BSTAR":0.00010023598,"MEAN_MOTION_DOT":0.00000261,"MEAN_MOTION_DDOT":0},{"OBJECT_NAME":"QIANFAN-28","OBJECT_ID":"2024-185K","EPOCH":"2026-07-15T21:16:55.454016","CLASSIFICATION_TYPE":"U","MEAN_MOTION":14.2841916,"ECCENTRICITY":0.00053823,"INCLINATION":88.9817,"RA_OF_ASC_NODE":51.7384,"ARG_OF_PERICENTER":316.5785,"MEAN_ANOMALY":43.4985,"EPHEMERIS_TYPE":0,"NORAD_CAT_ID":61561,"ELEMENT_SET_NO":999,"REV_AT_EPOCH":10088,"BSTAR":0.00012757511,"MEAN_MOTION_DOT":0.00000333,"MEAN_MOTION_DDOT":0},{"OBJECT_NAME":"QIANFAN-29","OBJECT_ID":"2024-185L","EPOCH":"2026-07-15T21:14:06.517824","CLASSIFICATION_TYPE":"U","MEAN_MOTION":13.51078794,"ECCENTRICITY":0.00109285,"INCLINATION":88.9774,"RA_OF_ASC_NODE":59.0744,"ARG_OF_PERICENTER":139.3672,"MEAN_ANOMALY":220.8297,"EPHEMERIS_TYPE":0,"NORAD_CAT_ID":61562,"ELEMENT_SET_NO":999,"REV_AT_EPOCH":9684,"BSTAR":0.00013756177,"MEAN_MOTION_DOT":0.00000101,"MEAN_MOTION_DDOT":0},{"OBJECT_NAME":"QIANFAN-30","OBJECT_ID":"2024-185M","EPOCH":"2026-07-15T20:59:13.877088","CLASSIFICATION_TYPE":"U","MEAN_MOTION":13.50061408,"ECCENTRICITY":0.00089121,"INCLINATION":88.9794,"RA_OF_ASC_NODE":58.683,"ARG_OF_PERICENTER":125.2103,"MEAN_ANOMALY":234.9884,"EPHEMERIS_TYPE":0,"NORAD_CAT_ID":61563,"ELEMENT_SET_NO":999,"REV_AT_EPOCH":9709,"BSTAR":-0.000006489731,"MEAN_MOTION_DOT":8e-8,"MEAN_MOTION_DDOT":0},{"OBJECT_NAME":"QIANFAN-31","OBJECT_ID":"2024-185N","EPOCH":"2026-07-15T21:43:36.562656","CLASSIFICATION_TYPE":"U","MEAN_MOTION":13.58046958,"ECCENTRICITY":0.00087517,"INCLINATION":88.9778,"RA_OF_ASC_NODE":58.1404,"ARG_OF_PERICENTER":113.1369,"MEAN_ANOMALY":247.0709,"EPHEMERIS_TYPE":0,"NORAD_CAT_ID":61564,"ELEMENT_SET_NO":999,"REV_AT_EPOCH":9736,"BSTAR":0.00015041072,"MEAN_MOTION_DOT":0.00000121,"MEAN_MOTION_DDOT":0},{"OBJECT_NAME":"QIANFAN-32","OBJECT_ID":"2024-185P","EPOCH":"2026-07-15T20:57:06.837120","CLASSIFICATION_TYPE":"U","MEAN_MOTION":13.50792508,"ECCENTRICITY":0.00101568,"INCLINATION":88.9834,"RA_OF_ASC_NODE":58.8816,"ARG_OF_PERICENTER":153.7439,"MEAN_ANOMALY":206.4229,"EPHEMERIS_TYPE":0,"NORAD_CAT_ID":61565,"ELEMENT_SET_NO":999,"REV_AT_EPOCH":9708,"BSTAR":0.00016795238,"MEAN_MOTION_DOT":0.0000012,"MEAN_MOTION_DDOT":0}]}
